[{"OBJECT_NAME":"SL-16 R/B","OBJECT_ID":"1993-059B","EPOCH":"2026-04-12T18:42:13.470048","MEAN_MOTION":14.1723882,"ECCENTRICITY":0.0016502,"INCLINATION":70.9897,"RA_OF_ASC_NODE":299.2393,"ARG_OF_PERICENTER":165.5953,"MEAN_ANOMALY":194.5645,"EPHEMERIS_TYPE":0,"CLASSIFICATION_TYPE":"U","NORAD_CAT_ID":22803,"ELEMENT_SET_NO":999,"REV_AT_EPOCH":68436,"BSTAR":8.4391e-5,"MEAN_MOTION_DOT":1.23e-6,"MEAN_MOTION_DDOT":0},{"OBJECT_NAME":"ARIANE 40 R/B","OBJECT_ID":"1993-061H","EPOCH":"2026-04-12T16:56:24.340128","MEAN_MOTION":14.32879611,"ECCENTRICITY":0.0010878,"INCLINATION":98.4859,"RA_OF_ASC_NODE":170.9118,"ARG_OF_PERICENTER":177.2877,"MEAN_ANOMALY":182.8369,"EPHEMERIS_TYPE":0,"CLASSIFICATION_TYPE":"U","NORAD_CAT_ID":22830,"ELEMENT_SET_NO":999,"REV_AT_EPOCH":69897,"BSTAR":6.2455e-5,"MEAN_MOTION_DOT":1.28e-6,"MEAN_MOTION_DDOT":0},{"OBJECT_NAME":"COSMOS 2278","OBJECT_ID":"1994-023A","EPOCH":"2026-04-12T18:10:26.520096","MEAN_MOTION":14.14378145,"ECCENTRICITY":0.0009678,"INCLINATION":71.0504,"RA_OF_ASC_NODE":103.8214,"ARG_OF_PERICENTER":324.8341,"MEAN_ANOMALY":35.2141,"EPHEMERIS_TYPE":0,"CLASSIFICATION_TYPE":"U","NORAD_CAT_ID":23087,"ELEMENT_SET_NO":999,"REV_AT_EPOCH":64962,"BSTAR":0.00017964,"MEAN_MOTION_DOT":2.97e-6,"MEAN_MOTION_DDOT":0},{"OBJECT_NAME":"SL-16 R/B","OBJECT_ID":"1994-023B","EPOCH":"2026-04-12T17:13:23.321856","MEAN_MOTION":14.15019795,"ECCENTRICITY":0.0005635,"INCLINATION":71.0029,"RA_OF_ASC_NODE":359.4267,"ARG_OF_PERICENTER":256.567,"MEAN_ANOMALY":103.4824,"EPHEMERIS_TYPE":0,"CLASSIFICATION_TYPE":"U","NORAD_CAT_ID":23088,"ELEMENT_SET_NO":999,"REV_AT_EPOCH":65090,"BSTAR":-7.2543e-5,"MEAN_MOTION_DOT":-1.88e-6,"MEAN_MOTION_DDOT":0},{"OBJECT_NAME":"SL-16 R/B","OBJECT_ID":"1994-074B","EPOCH":"2026-04-12T14:54:29.601216","MEAN_MOTION":14.79447113,"ECCENTRICITY":0.0008041,"INCLINATION":97.7057,"RA_OF_ASC_NODE":132.0568,"ARG_OF_PERICENTER":107.5095,"MEAN_ANOMALY":8.0958,"EPHEMERIS_TYPE":0,"CLASSIFICATION_TYPE":"U","NORAD_CAT_ID":23343,"ELEMENT_SET_NO":999,"REV_AT_EPOCH":69226,"BSTAR":4.3922e-5,"MEAN_MOTION_DOT":2.79e-6,"MEAN_MOTION_DDOT":0},{"OBJECT_NAME":"SL-16 R/B","OBJECT_ID":"1994-077B","EPOCH":"2026-04-12T19:51:20.096352","MEAN_MOTION":14.15566887,"ECCENTRICITY":0.0001178,"INCLINATION":70.9811,"RA_OF_ASC_NODE":280.6688,"ARG_OF_PERICENTER":168.2095,"MEAN_ANOMALY":191.9056,"EPHEMERIS_TYPE":0,"CLASSIFICATION_TYPE":"U","NORAD_CAT_ID":23405,"ELEMENT_SET_NO":999,"REV_AT_EPOCH":62106,"BSTAR":6.6028e-5,"MEAN_MOTION_DOT":8.1e-7,"MEAN_MOTION_DDOT":0},{"OBJECT_NAME":"ARIANE 40+ R/B","OBJECT_ID":"1995-021B","EPOCH":"2026-04-12T17:45:23.371776","MEAN_MOTION":14.39797327,"ECCENTRICITY":0.0007504,"INCLINATION":98.4443,"RA_OF_ASC_NODE":173.7513,"ARG_OF_PERICENTER":48.5661,"MEAN_ANOMALY":61.6697,"EPHEMERIS_TYPE":0,"CLASSIFICATION_TYPE":"U","NORAD_CAT_ID":23561,"ELEMENT_SET_NO":999,"REV_AT_EPOCH":62414,"BSTAR":6.6917e-5,"MEAN_MOTION_DOT":1.66e-6,"MEAN_MOTION_DDOT":0},{"OBJECT_NAME":"SL-16 R/B","OBJECT_ID":"1995-058B","EPOCH":"2026-04-12T18:22:03.021600","MEAN_MOTION":14.15501183,"ECCENTRICITY":0.001056,"INCLINATION":71.0188,"RA_OF_ASC_NODE":108.7143,"ARG_OF_PERICENTER":63.3003,"MEAN_ANOMALY":296.92,"EPHEMERIS_TYPE":0,"CLASSIFICATION_TYPE":"U","NORAD_CAT_ID":23705,"ELEMENT_SET_NO":999,"REV_AT_EPOCH":57267,"BSTAR":0.00018726,"MEAN_MOTION_DOT":3.19e-6,"MEAN_MOTION_DDOT":0},{"OBJECT_NAME":"SL-16 R/B","OBJECT_ID":"1996-051B","EPOCH":"2026-04-12T17:38:35.892960","MEAN_MOTION":14.12424848,"ECCENTRICITY":0.0012714,"INCLINATION":70.7579,"RA_OF_ASC_NODE":103.1774,"ARG_OF_PERICENTER":90.5937,"MEAN_ANOMALY":269.6639,"EPHEMERIS_TYPE":0,"CLASSIFICATION_TYPE":"U","NORAD_CAT_ID":24298,"ELEMENT_SET_NO":999,"REV_AT_EPOCH":52645,"BSTAR":5.6511e-5,"MEAN_MOTION_DOT":5.5e-7,"MEAN_MOTION_DDOT":0},{"OBJECT_NAME":"ORBVIEW 2 (SEASTAR)","OBJECT_ID":"1997-037A","EPOCH":"2026-04-12T17:03:50.641920","MEAN_MOTION":14.35519226,"ECCENTRICITY":0.0001614,"INCLINATION":98.8625,"RA_OF_ASC_NODE":267.9347,"ARG_OF_PERICENTER":348.7202,"MEAN_ANOMALY":11.3946,"EPHEMERIS_TYPE":0,"CLASSIFICATION_TYPE":"U","NORAD_CAT_ID":24883,"ELEMENT_SET_NO":999,"REV_AT_EPOCH":51335,"BSTAR":7.7432e-5,"MEAN_MOTION_DOT":1.76e-6,"MEAN_MOTION_DDOT":0},{"OBJECT_NAME":"SL-16 R/B","OBJECT_ID":"1998-043G","EPOCH":"2026-04-12T19:56:28.567680","MEAN_MOTION":14.26057837,"ECCENTRICITY":0.0008776,"INCLINATION":98.8308,"RA_OF_ASC_NODE":56.4487,"ARG_OF_PERICENTER":276.6678,"MEAN_ANOMALY":83.3503,"EPHEMERIS_TYPE":0,"CLASSIFICATION_TYPE":"U","NORAD_CAT_ID":25400,"ELEMENT_SET_NO":999,"REV_AT_EPOCH":44385,"BSTAR":3.0202e-5,"MEAN_MOTION_DOT":2.7e-7,"MEAN_MOTION_DDOT":0},{"OBJECT_NAME":"SL-16 R/B","OBJECT_ID":"1998-045B","EPOCH":"2026-04-12T06:21:41.565024","MEAN_MOTION":14.16197625,"ECCENTRICITY":0.0008703,"INCLINATION":71.0088,"RA_OF_ASC_NODE":110.9663,"ARG_OF_PERICENTER":320.3047,"MEAN_ANOMALY":39.7438,"EPHEMERIS_TYPE":0,"CLASSIFICATION_TYPE":"U","NORAD_CAT_ID":25407,"ELEMENT_SET_NO":999,"REV_AT_EPOCH":43185,"BSTAR":0.00014569,"MEAN_MOTION_DOT":2.41e-6,"MEAN_MOTION_DDOT":0},{"OBJECT_NAME":"ISS (ZARYA)","OBJECT_ID":"1998-067A","EPOCH":"2026-04-12T20:15:46.040832","MEAN_MOTION":15.48888784,"ECCENTRICITY":0.0006461,"INCLINATION":51.632,"RA_OF_ASC_NODE":263.4801,"ARG_OF_PERICENTER":305.2591,"MEAN_ANOMALY":54.7792,"EPHEMERIS_TYPE":0,"CLASSIFICATION_TYPE":"U","NORAD_CAT_ID":25544,"ELEMENT_SET_NO":999,"REV_AT_EPOCH":56162,"BSTAR":0.00010566,"MEAN_MOTION_DOT":5.354e-5,"MEAN_MOTION_DDOT":0},{"OBJECT_NAME":"CZ-4B R/B","OBJECT_ID":"1999-025C","EPOCH":"2026-04-12T09:03:47.352096","MEAN_MOTION":14.18272126,"ECCENTRICITY":0.0036054,"INCLINATION":98.656,"RA_OF_ASC_NODE":145.8503,"ARG_OF_PERICENTER":247.2662,"MEAN_ANOMALY":123.4767,"EPHEMERIS_TYPE":0,"CLASSIFICATION_TYPE":"U","NORAD_CAT_ID":25732,"ELEMENT_SET_NO":999,"REV_AT_EPOCH":39294,"BSTAR":3.6064e-5,"MEAN_MOTION_DOT":3.1e-7,"MEAN_MOTION_DDOT":0},{"OBJECT_NAME":"OKEAN-O","OBJECT_ID":"1999-039A","EPOCH":"2026-04-12T17:14:29.417856","MEAN_MOTION":14.80390184,"ECCENTRICITY":0.0001127,"INCLINATION":97.9375,"RA_OF_ASC_NODE":162.2519,"ARG_OF_PERICENTER":113.7889,"MEAN_ANOMALY":246.3441,"EPHEMERIS_TYPE":0,"CLASSIFICATION_TYPE":"U","NORAD_CAT_ID":25860,"ELEMENT_SET_NO":999,"REV_AT_EPOCH":43942,"BSTAR":5.6412e-5,"MEAN_MOTION_DOT":3.79e-6,"MEAN_MOTION_DDOT":0},{"OBJECT_NAME":"SL-16 R/B","OBJECT_ID":"1999-039B","EPOCH":"2026-04-12T20:51:14.546304","MEAN_MOTION":14.81779335,"ECCENTRICITY":0.0015667,"INCLINATION":97.9898,"RA_OF_ASC_NODE":161.902,"ARG_OF_PERICENTER":142.5111,"MEAN_ANOMALY":217.7198,"EPHEMERIS_TYPE":0,"CLASSIFICATION_TYPE":"U","NORAD_CAT_ID":25861,"ELEMENT_SET_NO":999,"REV_AT_EPOCH":44192,"BSTAR":5.0798e-5,"MEAN_MOTION_DOT":3.48e-6,"MEAN_MOTION_DDOT":0},{"OBJECT_NAME":"DELTA 2 R/B","OBJECT_ID":"1999-041E","EPOCH":"2026-04-12T03:18:05.490720","MEAN_MOTION":14.11913333,"ECCENTRICITY":0.05025674,"INCLINATION":51.7601,"RA_OF_ASC_NODE":167.6611,"ARG_OF_PERICENTER":87.0624,"MEAN_ANOMALY":278.7683,"EPHEMERIS_TYPE":0,"CLASSIFICATION_TYPE":"U","NORAD_CAT_ID":25876,"ELEMENT_SET_NO":999,"REV_AT_EPOCH":36775,"BSTAR":0.00014612894,"MEAN_MOTION_DOT":6.6e-6,"MEAN_MOTION_DDOT":0}]
