SL-16 R/B               
1 22803U 93059B   26102.77932257  .00000123  00000+0  84391-4 0  9998
2 22803  70.9897 299.2393 0016502 165.5953 194.5645 14.17238820684369
ARIANE 40 R/B           
1 22830U 93061H   26102.70583727  .00000128  00000+0  62455-4 0  9990
2 22830  98.4859 170.9118 0010878 177.2877 182.8369 14.32879611698978
COSMOS 2278             
1 23087U 94023A   26102.75725139  .00000297  00000+0  17964-3 0  9995
2 23087  71.0504 103.8214 0009678 324.8341  35.2141 14.14378145649624
SL-16 R/B               
1 23088U 94023B   26102.71763104 -.00000188  00000+0 -72543-4 0  9992
2 23088  71.0029 359.4267 0005635 256.5670 103.4824 14.15019795650902
SL-16 R/B               
1 23343U 94074B   26102.62117594  .00000279  00000+0  43922-4 0  9996
2 23343  97.7057 132.0568 0008041 107.5095   8.0958 14.79447113692263
SL-16 R/B               
1 23405U 94077B   26102.82731593  .00000081  00000+0  66028-4 0  9994
2 23405  70.9811 280.6688 0001178 168.2095 191.9056 14.15566887621065
ARIANE 40+ R/B          
1 23561U 95021B   26102.73985384  .00000166  00000+0  66917-4 0  9997
2 23561  98.4443 173.7513 0007504  48.5661  61.6697 14.39797327624148
SL-16 R/B               
1 23705U 95058B   26102.76531275  .00000319  00000+0  18726-3 0  9990
2 23705  71.0188 108.7143 0010560  63.3003 296.9200 14.15501183572679
SL-16 R/B               
1 24298U 96051B   26102.73513765  .00000055  00000+0  56511-4 0  9995
2 24298  70.7579 103.1774 0012714  90.5937 269.6639 14.12424848526454
ORBVIEW 2 (SEASTAR)     
1 24883U 97037A   26102.71100280  .00000176  00000+0  77432-4 0  9991
2 24883  98.8625 267.9347 0001614 348.7202  11.3946 14.35519226513350
SL-16 R/B               
1 25400U 98043G   26102.83088620  .00000027  00000+0  30202-4 0  9990
2 25400  98.8308  56.4487 0008776 276.6678  83.3503 14.26057837443852
SL-16 R/B               
1 25407U 98045B   26102.26506441  .00000241  00000+0  14569-3 0  9997
2 25407  71.0088 110.9663 0008703 320.3047  39.7438 14.16197625431854
ISS (ZARYA)             
1 25544U 98067A   26102.84428288  .00005354  00000+0  10566-3 0  9992
2 25544  51.6320 263.4801 0006461 305.2591  54.7792 15.48888784561620
CZ-4B R/B               
1 25732U 99025C   26102.37763139  .00000031  00000+0  36064-4 0  9990
2 25732  98.6560 145.8503 0036054 247.2662 123.4767 14.18272126392949
OKEAN-O                 
1 25860U 99039A   26102.71839604  .00000379  00000+0  56412-4 0  9990
2 25860  97.9375 162.2519 0001127 113.7889 246.3441 14.80390184439421
SL-16 R/B               
1 25861U 99039B   26102.86891836  .00000348  00000+0  50798-4 0  9999
2 25861  97.9898 161.9020 0015667 142.5111 217.7198 14.81779335441926
DELTA 2 R/B             
1 25876U 99041E   26102.13756355  .00000660  00000+0  14613-3 0  9996
2 25876  51.7601 167.6611 0502567  87.0624 278.7683 14.11913333367758
